QIANFAN-89              
1 63175U 25046S   25202.89469815  .00000095  00000+0  12883-3 0  9998
2 63175  88.9850 334.8525 0016929 175.0631 185.0690 13.50960314 27989
QIANFAN-90              
1 63176U 25046T   25202.92347892  .00000116  00000+0  16130-3 0  9996
2 63176  88.9850 334.8216 0013957 171.8129 188.3252 13.50958646 28000
